STARLINK-1821           
1 46718U 20073BA  26068.72991936  .00083201  00000+0  21811-2 0  9994
2 46718  53.0488 226.3874 0004148 156.9798 203.1391 15.37970474297352
KUIPER-00223            
1 67783U 26030V   26068.72136600  .00030225  00000+0  90645-3 0  9997
2 67783  51.8827 219.2782 0012824  59.0052 301.2192 15.34146210  5092
